{"type": "FeatureCollection", "features": [ {"type": "Feature", "properties": {"norad_id": 37971, "name": "COSMOS 2251 DEB", "group": "cosmos-2251-debris", "lat": 2.2457391516859233, "lon": -160.6688184868496, "alt_km": 688.1352754519557, "timestamp": "2025-12-24T07:45:06.596764+00:00", "meta": {"OBJECT_NAME": "COSMOS 2251 DEB", "OBJECT_ID": "1993-036BPW", "EPOCH": "2025-12-21T19:16:34.897152", "MEAN_MOTION": 14.48757325, "ECCENTRICITY": 0.00659406, "INCLINATION": 73.9924, "RA_OF_ASC_NODE": 24.7096, "ARG_OF_PERICENTER": 161.9609, "MEAN_ANOMALY": 198.3914, "EPHEMERIS_TYPE": 0, "CLASSIFICATION_TYPE": "U", "NORAD_CAT_ID": 37971, "ELEMENT_SET_NO": 999, "REV_AT_EPOCH": 60809, "BSTAR": 0.0013046337, "MEAN_MOTION_DOT": 5.035e-05, "MEAN_MOTION_DDOT": 0}, "tle": {"line1": "1 37971U 93036BPW 25355.80318168  .00005035  00000+0  13046-2 0  9991", "line2": "2 37971  73.9924  24.7096 0065940 161.9609 198.3914 14.48757325608091"}}, "geometry": {"type": "Point", "coordinates": [-160.6688184868496, 2.2457391516859233]}}, {"type": "Feature", "properties": {"norad_id": 37975, "name": "COSMOS 2251 DEB", "group": "cosmos-2251-debris", "lat": 42.491470730390105, "lon": 106.09645408304722, "alt_km": 695.1620031727007, "timestamp": "2025-12-24T07:45:06.596775+00:00", "meta": {"OBJECT_NAME": "COSMOS 2251 DEB", "OBJECT_ID": "1993-036BQA", "EPOCH": "2025-12-22T03:06:01.103616", "MEAN_MOTION": 14.76502233, "ECCENTRICITY": 0.00947052, "INCLINATION": 74.0027, "RA_OF_ASC_NODE": 305.6384, "ARG_OF_PERICENTER": 293.0752, "MEAN_ANOMALY": 66.0459, "EPHEMERIS_TYPE": 0, "CLASSIFICATION_TYPE": "U", "NORAD_CAT_ID": 37975, "ELEMENT_SET_NO": 999, "REV_AT_EPOCH": 69884, "BSTAR": 0.0037841877, "MEAN_MOTION_DOT": 0.00028465, "MEAN_MOTION_DDOT": 0}, "tle": {"line1": "1 37975U 93036BQA 25356.12917944  .00028465  00000+0  37842-2 0  9990", "line2": "2 37975  74.0027 305.6384 0094705 293.0752  66.0459 14.76502233698843"}}, "geometry": {"type": "Point", "coordinates": [106.09645408304722, 42.491470730390105]}}, {"type": "Feature", "properties": {"norad_id": 37985, "name": "COSMOS 2251 DEB", "group": "cosmos-2251-debris", "lat": -56.16830837421363, "lon": -140.8238763599492, "alt_km": 773.4521198662223, "timestamp": "2025-12-24T07:45:06.596785+00:00", "meta": {"OBJECT_NAME": "COSMOS 2251 DEB", "OBJECT_ID": "1993-036BQL", "EPOCH": "2025-12-21T23:09:40.593024", "MEAN_MOTION": 14.35485723, "ECCENTRICITY": 0.00211869, "INCLINATION": 74.025, "RA_OF_ASC_NODE": 248.8047, "ARG_OF_PERICENTER": 9.0301, "MEAN_ANOMALY": 351.1228, "EPHEMERIS_TYPE": 0, "CLASSIFICATION_TYPE": "U", "NORAD_CAT_ID": 37985, "ELEMENT_SET_NO": 999, "REV_AT_EPOCH": 65049, "BSTAR": 5.1256722e-05, "MEAN_MOTION_DOT": 1.21e-06, "MEAN_MOTION_DDOT": 0}, "tle": {"line1": "1 37985U 93036BQL 25355.96505316  .00000121  00000+0  51257-4 0  9995", "line2": "2 37985  74.0250 248.8047 0021186   9.0301 351.1228 14.35485723650494"}}, "geometry": {"type": "Point", "coordinates": [-140.8238763599492, -56.16830837421363]}}, {"type": "Feature", "properties": {"norad_id": 37988, "name": "COSMOS 2251 DEB", "group": "cosmos-2251-debris", "lat": -67.64637311249474, "lon": -134.33749576119223, "alt_km": 706.3443314974638, "timestamp": "2025-12-24T07:45:06.596795+00:00", "meta": {"OBJECT_NAME": "COSMOS 2251 DEB", "OBJECT_ID": "1993-036BQP", "EPOCH": "2025-12-19T02:22:34.688640", "MEAN_MOTION": 14.6891967, "ECCENTRICITY": 0.00635463, "INCLINATION": 74.062, "RA_OF_ASC_NODE": 11.7337, "ARG_OF_PERICENTER": 47.3595, "MEAN_ANOMALY": 313.2907, "EPHEMERIS_TYPE": 0, "CLASSIFICATION_TYPE": "U", "NORAD_CAT_ID": 37988, "ELEMENT_SET_NO": 999, "REV_AT_EPOCH": 23489, "BSTAR": 0.00064166354, "MEAN_MOTION_DOT": 3.842e-05, "MEAN_MOTION_DDOT": 0}, "tle": {"line1": "1 37988U 93036BQP 25353.09901260  .00003842  00000+0  64166-3 0  9993", "line2": "2 37988  74.0620  11.7337 0063546  47.3595 313.2907 14.68919670234897"}}, "geometry": {"type": "Point", "coordinates": [-134.33749576119223, -67.64637311249474]}}, {"type": "Feature", "properties": {"norad_id": 37993, "name": "COSMOS 2251 DEB", "group": "cosmos-2251-debris", "lat": 19.166406591128563, "lon": 150.51348024324844, "alt_km": 706.1069785036134, "timestamp": "2025-12-24T07:45:06.596805+00:00", "meta": {"OBJECT_NAME": "COSMOS 2251 DEB", "OBJECT_ID": "1993-036BQU", "EPOCH": "2025-12-17T04:37:52.855104", "MEAN_MOTION": 14.59966404, "ECCENTRICITY": 0.00218755, "INCLINATION": 74.021, "RA_OF_ASC_NODE": 158.4097, "ARG_OF_PERICENTER": 246.7183, "MEAN_ANOMALY": 113.168, "EPHEMERIS_TYPE": 0, "CLASSIFICATION_TYPE": "U", "NORAD_CAT_ID": 37993, "ELEMENT_SET_NO": 999, "REV_AT_EPOCH": 65382, "BSTAR": 0.0010496489, "MEAN_MOTION_DOT": 5.024e-05, "MEAN_MOTION_DDOT": 0}, "tle": {"line1": "1 37993U 93036BQU 25351.19297286  .00005024  00000+0  10496-2 0  9994", "line2": "2 37993  74.0210 158.4097 0021875 246.7183 113.1680 14.59966404653827"}}, "geometry": {"type": "Point", "coordinates": [150.51348024324844, 19.166406591128563]}}, {"type": "Feature", "properties": {"norad_id": 37994, "name": "COSMOS 2251 DEB", "group": "cosmos-2251-debris", "lat": -19.35584766356116, "lon": -111.47139547752319, "alt_km": 747.9380583937682, "timestamp": "2025-12-24T07:45:06.596815+00:00", "meta": {"OBJECT_NAME": "COSMOS 2251 DEB", "OBJECT_ID": "1993-036BQV", "EPOCH": "2025-12-23T03:29:35.457792", "MEAN_MOTION": 14.39645672, "ECCENTRICITY": 0.00233297, "INCLINATION": 74.0359, "RA_OF_ASC_NODE": 256.4734, "ARG_OF_PERICENTER": 334.1072, "MEAN_ANOMALY": 25.8913, "EPHEMERIS_TYPE": 0, "CLASSIFICATION_TYPE": "U", "NORAD_CAT_ID": 37994, "ELEMENT_SET_NO": 999, "REV_AT_EPOCH": 77214, "BSTAR": 0.00031418912, "MEAN_MOTION_DOT": 9.59e-06, "MEAN_MOTION_DDOT": 0}, "tle": {"line1": "1 37994U 93036BQV 25357.14554928  .00000959  00000+0  31419-3 0  9996", "line2": "2 37994  74.0359 256.4734 0023329 334.1072  25.8913 14.39645672772148"}}, "geometry": {"type": "Point", "coordinates": [-111.47139547752319, -19.35584766356116]}}, {"type": "Feature", "properties": {"norad_id": 37998, "name": "COSMOS 2251 DEB", "group": "cosmos-2251-debris", "lat": 50.597632534726365, "lon": 13.116495515871026, "alt_km": 748.6884714998323, "timestamp": "2025-12-24T07:45:06.596825+00:00", "meta": {"OBJECT_NAME": "COSMOS 2251 DEB", "OBJECT_ID": "1993-036BQZ", "EPOCH": "2025-12-19T00:55:56.823168", "MEAN_MOTION": 14.45502343, "ECCENTRICITY": 0.00202427, "INCLINATION": 74.0345, "RA_OF_ASC_NODE": 223.3597, "ARG_OF_PERICENTER": 295.5973, "MEAN_ANOMALY": 64.3093, "EPHEMERIS_TYPE": 0, "CLASSIFICATION_TYPE": "U", "NORAD_CAT_ID": 37998, "ELEMENT_SET_NO": 999, "REV_AT_EPOCH": 64378, "BSTAR": 0.00035299512, "MEAN_MOTION_DOT": 1.221e-05, "MEAN_MOTION_DDOT": 0}, "tle": {"line1": "1 37998U 93036BQZ 25353.03885212  .00001221  00000+0  35300-3 0  9993", "line2": "2 37998  74.0345 223.3597 0020242 295.5973  64.3093 14.45502343643786"}}, "geometry": {"type": "Point", "coordinates": [13.116495515871026, 50.597632534726365]}}, {"type": "Feature", "properties": {"norad_id": 38001, "name": "COSMOS 2251 DEB", "group": "cosmos-2251-debris", "lat": 43.59030898548498, "lon": 125.34386389852067, "alt_km": 667.1159161092091, "timestamp": "2025-12-24T07:45:06.596835+00:00", "meta": {"OBJECT_NAME": "COSMOS 2251 DEB", "OBJECT_ID": "1993-036BRC", "EPOCH": "2025-12-23T15:35:25.253376", "MEAN_MOTION": 14.7919771, "ECCENTRICITY": 0.00654339, "INCLINATION": 74.002, "RA_OF_ASC_NODE": 110.8209, "ARG_OF_PERICENTER": 258.3215, "MEAN_ANOMALY": 162.7816, "EPHEMERIS_TYPE": 0, "CLASSIFICATION_TYPE": "U", "NORAD_CAT_ID": 38001, "ELEMENT_SET_NO": 999, "REV_AT_EPOCH": 74869, "BSTAR": 0.00086672029, "MEAN_MOTION_DOT": 6.64e-05, "MEAN_MOTION_DDOT": 0}, "tle": {"line1": "1 38001U 93036BRC 25357.64959784  .00006640  00000+0  86672-3 0  9994", "line2": "2 38001  74.0020 110.8209 0065433 258.3215 162.7816 14.79197710748696"}}, "geometry": {"type": "Point", "coordinates": [125.34386389852067, 43.59030898548498]}}, {"type": "Feature", "properties": {"norad_id": 38006, "name": "COSMOS 2251 DEB", "group": "cosmos-2251-debris", "lat": -44.86682184181948, "lon": -0.5034145046982108, "alt_km": 690.4448292909219, "timestamp": "2025-12-24T07:45:06.596845+00:00", "meta": {"OBJECT_NAME": "COSMOS 2251 DEB", "OBJECT_ID": "1993-036BRH", "EPOCH": "2025-12-10T03:36:37.956384", "MEAN_MOTION": 14.45867865, "ECCENTRICITY": 0.00758537, "INCLINATION": 73.8744, "RA_OF_ASC_NODE": 42.933, "ARG_OF_PERICENTER": 348.3853, "MEAN_ANOMALY": 11.555, "EPHEMERIS_TYPE": 0, "CLASSIFICATION_TYPE": "U", "NORAD_CAT_ID": 38006, "ELEMENT_SET_NO": 999, "REV_AT_EPOCH": 62922, "BSTAR": 0.0047338847, "MEAN_MOTION_DOT": 0.00017443, "MEAN_MOTION_DDOT": 0}, "tle": {"line1": "1 38006U 93036BRH 25344.15043931  .00017443  00000+0  47339-2 0  9998", "line2": "2 38006  73.8744  42.9330 0075853 348.3853  11.5550 14.45867865629227"}}, "geometry": {"type": "Point", "coordinates": [-0.5034145046982108, -44.86682184181948]}}, {"type": "Feature", "properties": {"norad_id": 38054, "name": "COSMOS 2251 DEB", "group": "cosmos-2251-debris", "lat": 3.814676066451423, "lon": 65.73885862335646, "alt_km": 842.7473011888296, "timestamp": "2025-12-24T07:45:06.596855+00:00", "meta": {"OBJECT_NAME": "COSMOS 2251 DEB", "OBJECT_ID": "1993-036BRL", "EPOCH": "2025-12-23T03:29:54.046752", "MEAN_MOTION": 13.62385705, "ECCENTRICITY": 0.0357327, "INCLINATION": 73.9543, "RA_OF_ASC_NODE": 248.7636, "ARG_OF_PERICENTER": 224.8054, "MEAN_ANOMALY": 302.3647, "EPHEMERIS_TYPE": 0, "CLASSIFICATION_TYPE": "U", "NORAD_CAT_ID": 38054, "ELEMENT_SET_NO": 999, "REV_AT_EPOCH": 67321, "BSTAR": 0.0018321676, "MEAN_MOTION_DOT": 2.157e-05, "MEAN_MOTION_DDOT": 0}, "tle": {"line1": "1 38054U 93036BRL 25357.14576443  .00002157  00000+0  18322-2 0  9999", "line2": "2 38054  73.9543 248.7636 0357327 224.8054 302.3647 13.62385705673215"}}, "geometry": {"type": "Point", "coordinates": [65.73885862335646, 3.814676066451423]}}]}